NORAD_CAT_ID,OBJECT_NAME,OBJECT_TYPE,EPOCH,MEAN_MOTION,ECCENTRICITY,INCLINATION,RA_OF_ASC_NODE,ARG_OF_PERICENTER,MEAN_ANOMALY,BSTAR,MEAN_MOTION_DOT,MEAN_MOTION_DDOT,TLE_LINE0,TLE_LINE1,TLE_LINE2,SEMIMAJOR_AXIS,PERIOD,APOGEE,PERIGEE,DECAYED
50192.0,STARLINK-3259,PAYLOAD,2024-02-19 14:11:02,15.0883301,0.0001785,53.2193,1.9548,89.856,270.2637,0.0002396,3.527e-05,0.0,0 STARLINK-3259,1 50192U 21125AN  24050.59100304  .00003527  00000-0  23960-3 0  9991,2 50192  53.2193   1.9548 0001785  89.8560 270.2637 15.08833010123648,6917.902,95.438,541.002,538.532,0.0
50192.0,STARLINK-3259,PAYLOAD,2024-02-20 14:01:50,15.08839856,0.0001829,53.2179,357.4933,88.5236,271.5966,0.00037474,5.681e-05,0.0,0 STARLINK-3259,1 50192U 21125AN  24051.58460722  .00005681  00000-0  37474-3 0  9992,2 50192  53.2179 357.4933 0001829  88.5236 271.5966 15.08839856123793,6917.881,95.438,541.011,538.481,0.0
50192.0,STARLINK-3259,PAYLOAD,2024-02-21 02:44:54,15.08858793,0.0001782,53.2189,355.1133,90.2547,269.865,0.00089703,0.00014024,0.0,0 STARLINK-3259,1 50192U 21125AN  24052.11452268  .00014024  00000-0  89703-3 0  9991,2 50192  53.2189 355.1133 0001782  90.2547 269.8650 15.08858793120781,6917.823,95.436,540.921,538.455,0.0
50192.0,STARLINK-3259,PAYLOAD,2024-02-22 02:35:41,15.08847576,0.000149,53.2192,350.6531,105.9704,254.1452,0.00020355,2.954e-05,0.0,0 STARLINK-3259,1 50192U 21125AN  24053.10812107  .00002954  00000-0  20355-3 0  9990,2 50192  53.2192 350.6531 0001490 105.9704 254.1452 15.08847576120933,6917.857,95.437,540.753,538.691,0.0
50192.0,STARLINK-3259,PAYLOAD,2024-02-22 05:46:27,15.08849186,0.0001441,53.2193,350.0582,102.3586,257.7568,0.00026634,3.954e-05,0.0,0 STARLINK-3259,1 50192U 21125AN  24053.24060059  .00003954  00000-0  26634-3 0  9993,2 50192  53.2193 350.0582 0001441 102.3586 257.7568 15.08849186124041,6917.852,95.437,540.714,538.72,0.0
50192.0,STARLINK-3259,PAYLOAD,2024-02-23 02:26:28,15.08844807,0.00015,53.2191,346.1908,102.7468,257.3692,3.9391e-05,3.39e-06,0.0,0 STARLINK-3259,1 50192U 21125AN  24054.10172109  .00000339  00000-0  39391-4 0  9998,2 50192  53.2191 346.1908 0001500 102.7468 257.3692 15.08844807121086,6917.866,95.437,540.768,538.693,0.0
50192.0,STARLINK-3259,PAYLOAD,2024-02-23 11:58:47,15.08841694,0.0001434,53.2191,344.4065,88.4092,271.7065,2.9938e-05,1.89e-06,0.0,0 STARLINK-3259,1 50192U 21125AN  24054.49916265  .00000189  00000-0  29938-4 0  9998,2 50192  53.2191 344.4065 0001434  88.4092 271.7065 15.08841694124235,6917.875,95.437,540.732,538.748,0.0
50192.0,STARLINK-3259,PAYLOAD,2024-02-24 03:52:39,15.08842336,0.0001515,53.2201,341.434,103.8289,256.2871,0.00010047,1.311e-05,0.0,0 STARLINK-3259,1 50192U 21125AN  24055.16156302  .00001311  00000-0  10047-3 0  9999,2 50192  53.2201 341.4340 0001515 103.8289 256.2871 15.08842336121245,6917.873,95.437,540.786,538.69,0.0
50192.0,STARLINK-3259,PAYLOAD,2024-02-24 11:49:34,15.08844488,0.0001456,53.22,339.9483,89.2677,270.8481,0.00014674,2.048e-05,0.0,0 STARLINK-3259,1 50192U 21125AN  24055.49276296  .00002048  00000-0  14674-3 0  9998,2 50192  53.2200 339.9483 0001456  89.2677 270.8481 15.08844488124383,6917.867,95.437,540.739,538.724,0.0
50192.0,STARLINK-3259,PAYLOAD,2024-02-24 18:11:07,15.08839047,0.0001468,53.2198,338.7671,87.8159,272.3002,0.000121,1.638e-05,0.0,0 STARLINK-3259,1 50192U 21125AN  24055.75772701  .00001638  00000-0  12100-3 0  9995,2 50192  53.2198 338.7671 0001468  87.8159 272.3002 15.08839047124423,6917.883,95.438,540.764,538.733,0.0
50192.0,STARLINK-3259,PAYLOAD,2024-02-25 05:18:49,15.08840042,0.0002426,53.2185,336.6773,81.7845,278.3422,5.9783e-05,6.63e-06,0.0,0 STARLINK-3259,1 50192U 21125AN  24056.22140962  .00000663  00000-0  59783-4 0  9992,2 50192  53.2185 336.6773 0002426  81.7845 278.3422 15.08840042121403,6917.88,95.438,541.424,538.067,0.0
50192.0,STARLINK-3259,PAYLOAD,2024-02-25 11:40:22,15.08843776,0.0002246,53.218,335.4896,83.7075,276.4173,6.9941e-05,8.25e-06,0.0,0 STARLINK-3259,1 50192U 21125AN  24056.48636692  .00000825  00000-0  69941-4 0  9997,2 50192  53.2180 335.4896 0002246  83.7075 276.4173 15.08843776124534,6917.869,95.437,541.288,538.18,0.0
50192.0,STARLINK-3259,PAYLOAD,2024-02-25 22:48:03,15.0884872,0.0001766,53.2163,333.4091,86.8372,273.2822,0.00022447,3.287e-05,0.0,0 STARLINK-3259,1 50192U 21125AN  24056.95004210  .00003287  00000-0  22447-3 0  9998,2 50192  53.2163 333.4091 0001766  86.8372 273.2822 15.08848720124608,6917.854,95.437,540.94,538.497,0.0
50192.0,STARLINK-3259,PAYLOAD,2024-02-26 03:34:12,15.08855085,0.0001503,53.2195,332.5145,93.0606,267.0558,0.00022176,3.245e-05,0.0,0 STARLINK-3259,1 50192U 21125AN  24057.14875733  .00003245  00000-0  22176-3 0  9999,2 50192  53.2195 332.5145 0001503  93.0606 267.0558 15.08855085121541,6917.834,95.437,540.739,538.66,0.0
50192.0,STARLINK-3259,PAYLOAD,2024-02-26 17:52:42,15.0883219,0.0001703,53.217,329.8402,79.908,280.2105,-3.3121e-05,-8.15e-06,0.0,0 STARLINK-3259,1 50192U 21125AN  24057.74493177 -.00000815  00000-0 -33121-4 0  9998,2 50192  53.2170 329.8402 0001703  79.9080 280.2105 15.08832190121637,6917.904,95.438,540.947,538.591,0.0
50192.0,STARLINK-3259,PAYLOAD,2024-02-26 22:38:51,15.08830355,0.0001584,53.2189,328.9471,128.2661,231.8474,0.00022938,3.364e-05,0.0,0 STARLINK-3259,1 50192U 21125AN  24057.94365066  .00003364  00000-0  22938-3 0  9998,2 50192  53.2189 328.9471 0001584 128.2661 231.8474 15.08830355124751,6917.91,95.438,540.871,538.679,0.0
50192.0,STARLINK-3259,PAYLOAD,2024-02-27 03:25:00,15.08841024,0.0001672,53.2188,328.0558,95.0788,265.0395,1.5309e-05,-4.4e-07,0.0,0 STARLINK-3259,1 50192U 21125AN  24058.14236712 -.00000044  00000-0  15309-4 0  9994,2 50192  53.2188 328.0558 0001672  95.0788 265.0395 15.08841024121692,6917.877,95.437,540.899,538.586,0.0
50192.0,STARLINK-3259,PAYLOAD,2024-02-27 11:21:56,15.08836906,0.0001703,53.2187,326.5687,85.3244,274.7943,2.0898e-05,4.5e-07,0.0,0 STARLINK-3259,1 50192U 21125AN  24058.47357085  .00000045  00000-0  20898-4 0  9996,2 50192  53.2187 326.5687 0001703  85.3244 274.7943 15.08836906124839,6917.89,95.438,540.933,538.577,0.0
50192.0,STARLINK-3259,PAYLOAD,2024-02-27 17:43:29,15.08835993,0.000163,53.218,325.3798,85.374,274.7439,3.4586e-05,2.62e-06,0.0,0 STARLINK-3259,1 50192U 21125AN  24058.73853209  .00000262  00000-0  34586-4 0  9994,2 50192  53.2180 325.3798 0001630  85.3740 274.7439 15.08835993121788,6917.893,95.438,540.885,538.63,0.0
50192.0,STARLINK-3259,PAYLOAD,2024-02-27 22:29:38,15.08841115,0.0001751,53.2175,324.4903,79.2427,280.8762,0.00010626,1.404e-05,0.0,0 STARLINK-3259,1 50192U 21125AN  24058.93725058  .00001404  00000-0  10626-3 0  9993,2 50192  53.2175 324.4903 0001751  79.2427 280.8762 15.08841115124905,6917.877,95.437,540.953,538.531,0.0
50192.0,STARLINK-3259,PAYLOAD,2024-02-28 11:12:43,15.08846046,0.0001364,53.2165,322.1109,83.3824,276.7323,8.0691e-05,9.97e-06,0.0,0 STARLINK-3259,1 50192U 21125AN  24059.46716592  .00000997  00000-0  80691-4 0  9991,2 50192  53.2165 322.1109 0001364  83.3824 276.7323 15.08846046121894,6917.862,95.437,540.671,538.783,0.0
50192.0,STARLINK-3259,PAYLOAD,2024-02-28 20:45:02,15.08839126,0.0001499,53.2159,320.326,80.9815,279.1347,0.00016996,2.418e-05,0.0,0 STARLINK-3259,1 50192U 21125AN  24059.86461242  .00002418  00000-0  16996-3 0  9990,2 50192  53.2159 320.3260 0001499  80.9815 279.1347 15.08839126121958,6917.883,95.438,540.785,538.711,0.0
50192.0,STARLINK-3259,PAYLOAD,2024-02-28 22:20:25,15.08839486,0.0001479,53.217,320.0289,83.9681,276.1479,0.00017083,2.432e-05,0.0,0 STARLINK-3259,1 50192U 21125AN  24059.93085243  .00002432  00000-0  17083-3 0  9995,2 50192  53.2170 320.0289 0001479  83.9681 276.1479 15.08839486125058,6917.882,95.438,540.77,538.724,0.0
50192.0,STARLINK-3259,PAYLOAD,2024-02-29 03:06:34,15.08845271,0.0001454,53.2176,319.1358,92.1947,267.9212,0.0002316,3.4e-05,0.0,0 STARLINK-3259,1 50192U 21125AN  24060.12956930  .00003400  00000-0  23160-3 0  9997,2 50192  53.2176 319.1358 0001454  92.1947 267.9212 15.08845271125085,6917.864,95.437,540.735,538.723,0.0
50192.0,STARLINK-3259,PAYLOAD,2024-02-29 20:35:47,15.08867834,0.000161,53.2184,315.8655,87.1325,272.9851,-8.8824e-05,-1.703e-05,0.0,0 STARLINK-3259,1 50192U 21125AN  24060.85819200 -.00001703  00000-0 -88824-4 0  9990,2 50192  53.2184 315.8655 0001610  87.1325 272.9851 15.08867834122109,6917.795,95.436,540.774,538.547,0.0
50192.0,STARLINK-3259,PAYLOAD,2024-02-29 22:11:11,15.08854921,0.0001289,53.218,315.5669,81.1937,278.9201,0.00038484,5.845e-05,0.0,0 STARLINK-3259,1 50192U 21125AN  24060.92444088  .00005845  00000-0  38484-3 0  9991,2 50192  53.2180 315.5669 0001289  81.1937 278.9201 15.08854921125204,6917.835,95.437,540.591,538.808,0.0
50192.0,STARLINK-3259,PAYLOAD,2024-03-01 09:18:53,15.088402,0.0001728,53.2191,313.4856,87.4245,272.6945,-4.0884e-05,-9.39e-06,0.0,0 STARLINK-3259,1 50192U 21125AN  24061.38812286 -.00000939  00000-0 -40884-4 0  9990,2 50192  53.2191 313.4856 0001728  87.4245 272.6945 15.08840200125278,6917.88,95.438,540.94,538.549,0.0
50192.0,STARLINK-3259,PAYLOAD,2024-03-01 22:01:58,15.0883525,0.0001491,53.2179,311.107,103.8164,256.2994,-0.00010317,-1.929e-05,0.0,0 STARLINK-3259,1 50192U 21125AN  24061.91804373 -.00001929  00000-0 -10317-3 0  9994,2 50192  53.2179 311.1070 0001491 103.8164 256.2994 15.08835250125357,6917.895,95.438,540.791,538.728,0.0
50192.0,STARLINK-3259,PAYLOAD,2024-03-01 23:37:21,15.08837005,0.0001519,53.2183,310.8096,101.7881,258.3281,-0.00019944,-3.46e-05,0.0,0 STARLINK-3259,1 50192U 21125AN  24061.98428027 -.00003460  00000-0 -19944-3 0  9996,2 50192  53.2183 310.8096 0001519 101.7881 258.3281 15.08837005125363,6917.89,95.438,540.805,538.704,0.0
50192.0,STARLINK-3259,PAYLOAD,2024-03-02 20:17:22,15.08835558,0.0001451,53.2172,306.9452,101.2728,258.8428,-0.00019587,-3.403e-05,0.0,0 STARLINK-3259,1 50192U 21125AN  24062.84540391 -.00003403  00000-0 -19587-3 0  9991,2 50192  53.2172 306.9452 0001451 101.2728 258.8428 15.08835558122404,6917.894,95.438,540.763,538.755,0.0
